[
  {
    "OBJECT_NAME": "STARLINK-11694 [DTC]",
    "OBJECT_ID": "25119L",
    "EPOCH": "2025-11-11T01:37:23.711520",
    "MEAN_MOTION": 15.70949453,
    "ECCENTRICITY": 0.0003397,
    "INCLINATION": 42.9988,
    "RA_OF_ASC_NODE": 204.5678,
    "ARG_OF_PERICENTER": 263.6133,
    "MEAN_ANOMALY": 96.4348,
    "EPHEMERIS_TYPE": 0,
    "CLASSIFICATION_TYPE": "U",
    "NORAD_CAT_ID": 64243,
    "ELEMENT_SET_NO": 999,
    "REV_AT_EPOCH": 2658,
    "BSTAR": 0.0027758,
    "MEAN_MOTION_DOT": 0.00373953,
    "MEAN_MOTION_DDOT": 0.0,
    "TLE_LINE1": "1 64243U 25119L   25315.06763555  .00373953  00000+0  27758-2 0  9990",
    "TLE_LINE2": "2 64243  42.9988 204.5678 0003397 263.6133  96.4348 15.70949453 26581",
    "COMMENT": "Grouped by shell and plane from TLE"
  },
  {
    "OBJECT_NAME": "STARLINK-11710 [DTC]",
    "OBJECT_ID": "25119M",
    "EPOCH": "2025-11-11T01:14:28.463712",
    "MEAN_MOTION": 15.70928348,
    "ECCENTRICITY": 0.0001349,
    "INCLINATION": 42.9986,
    "RA_OF_ASC_NODE": 204.4369,
    "ARG_OF_PERICENTER": 306.0786,
    "MEAN_ANOMALY": 53.9956,
    "EPHEMERIS_TYPE": 0,
    "CLASSIFICATION_TYPE": "U",
    "NORAD_CAT_ID": 64244,
    "ELEMENT_SET_NO": 999,
    "REV_AT_EPOCH": 2658,
    "BSTAR": 0.0032761,
    "MEAN_MOTION_DOT": 0.00444871,
    "MEAN_MOTION_DDOT": 0.0,
    "TLE_LINE1": "1 64244U 25119M   25315.05171833  .00444871  00000+0  32761-2 0  9990",
    "TLE_LINE2": "2 64244  42.9986 204.4369 0001349 306.0786  53.9956 15.70928348 26580",
    "COMMENT": "Grouped by shell and plane from TLE"
  },
  {
    "OBJECT_NAME": "STARLINK-11704 [DTC]",
    "OBJECT_ID": "25119N",
    "EPOCH": "2025-11-11T02:00:09.301536",
    "MEAN_MOTION": 15.70914155,
    "ECCENTRICITY": 0.0001339,
    "INCLINATION": 42.9977,
    "RA_OF_ASC_NODE": 203.797,
    "ARG_OF_PERICENTER": 287.1868,
    "MEAN_ANOMALY": 72.8853,
    "EPHEMERIS_TYPE": 0,
    "CLASSIFICATION_TYPE": "U",
    "NORAD_CAT_ID": 64245,
    "ELEMENT_SET_NO": 999,
    "REV_AT_EPOCH": 2659,
    "BSTAR": 0.0019001000000000003,
    "MEAN_MOTION_DOT": 0.00251675,
    "MEAN_MOTION_DDOT": 0.0,
    "TLE_LINE1": "1 64245U 25119N   25315.08344099  .00251675  00000+0  19001-2 0  9990",
    "TLE_LINE2": "2 64245  42.9977 203.7970 0001339 287.1868  72.8853 15.70914155 26598",
    "COMMENT": "Grouped by shell and plane from TLE"
  }
]